{
"type": "FeatureCollection",
"name": "schools_mpls",
"crs": { "type": "name", "properties": { "name": "urn:ogc:def:crs:EPSG::4269" } },
"features": [
{ "type": "Feature", "properties": { "NAME": "Minnesota Transitions Charter Elem", "sector": "charter", "source": "NCES CCD 2022-23 + EDGE 2021-22", "level": "Elementary", "county_fips": "27053" }, "geometry": { "type": "Point", "coordinates": [ -93.23363, 44.956369 ] } },
{ "type": "Feature", "properties": { "NAME": "MTS HIGH SCHOOL", "sector": "charter", "source": "NCES CCD 2022-23 + EDGE 2021-22", "level": "High", "county_fips": "27053" }, "geometry": { "type": "Point", "coordinates": [ -93.237587, 44.950685 ] } },
{ "type": "Feature", "properties": { "NAME": "EL COLEGIO CHARTER SCHOOL", "sector": "charter", "source": "NCES CCD 2022-23 + EDGE 2021-22", "level": "High", "county_fips": "27053" }, "geometry": { "type": "Point", "coordinates": [ -93.252176, 44.92799 ] } },
{ "type": "Feature", "properties": { "NAME": "Friendship Academy of the Arts", "sector": "charter", "source": "NCES CCD 2022-23 + EDGE 2021-22", "level": "Elementary", "county_fips": "27053" }, "geometry": { "type": "Point", "coordinates": [ -93.234276, 44.934345 ] } },
{ "type": "Feature", "properties": { "NAME": "Friendship Academy of Arts - Interm", "sector": "charter", "source": "NCES CCD 2022-23 + EDGE 2021-22", "level": "Middle", "county_fips": "27053" }, "geometry": { "type": "Point", "coordinates": [ -93.223485, 44.929181 ] } },
{ "type": "Feature", "properties": { "NAME": "WATERSHED HIGH SCHOOL", "sector": "charter", "source": "NCES CCD 2022-23 + EDGE 2021-22", "level": "High", "county_fips": "27053" }, "geometry": { "type": "Point", "coordinates": [ -93.251328, 44.884273 ] } },
{ "type": "Feature", "properties": { "NAME": "AURORA CHARTER SCHOOL", "sector": "charter", "source": "NCES CCD 2022-23 + EDGE 2021-22", "level": "Elementary", "county_fips": "27053" }, "geometry": { "type": "Point", "coordinates": [ -93.241051, 44.95484 ] } },
{ "type": "Feature", "properties": { "NAME": "AURORA MIDDLE SCHOOL", "sector": "charter", "source": "NCES CCD 2022-23 + EDGE 2021-22", "level": "Middle", "county_fips": "27053" }, "geometry": { "type": "Point", "coordinates": [ -93.241051, 44.95484 ] } },
{ "type": "Feature", "properties": { "NAME": "Hiawatha Leadership Acdy-Northrop", "sector": "charter", "source": "NCES CCD 2022-23 + EDGE 2021-22", "level": "Elementary", "county_fips": "27053" }, "geometry": { "type": "Point", "coordinates": [ -93.250522, 44.919319 ] } },
{ "type": "Feature", "properties": { "NAME": "Hiawatha Collegiate High School", "sector": "charter", "source": "NCES CCD 2022-23 + EDGE 2021-22", "level": "High", "county_fips": "27053" }, "geometry": { "type": "Point", "coordinates": [ -93.221704, 44.951972 ] } },
{ "type": "Feature", "properties": { "NAME": "Hiawatha College Prep - Northrop", "sector": "charter", "source": "NCES CCD 2022-23 + EDGE 2021-22", "level": "Middle", "county_fips": "27053" }, "geometry": { "type": "Point", "coordinates": [ -93.250232, 44.918386 ] } },
{ "type": "Feature", "properties": { "NAME": "Lincoln International High School", "sector": "charter", "source": "NCES CCD 2022-23 + EDGE 2021-22", "level": "High", "county_fips": "27053" }, "geometry": { "type": "Point", "coordinates": [ -93.240406, 44.956362 ] } },
{ "type": "Feature", "properties": { "NAME": "Hennepin Middle School", "sector": "charter", "source": "NCES CCD 2022-23 + EDGE 2021-22", "level": "Middle", "county_fips": "27053" }, "geometry": { "type": "Point", "coordinates": [ -93.226819, 44.9123 ] } },
{ "type": "Feature", "properties": { "NAME": "AUGSBURG FAIRVIEW ACADEMY", "sector": "charter", "source": "NCES CCD 2022-23 + EDGE 2021-22", "level": "High", "county_fips": "27053" }, "geometry": { "type": "Point", "coordinates": [ -93.264146, 44.957072 ] } },
{ "type": "Feature", "properties": { "NAME": "Venture Academy High School", "sector": "charter", "source": "NCES CCD 2022-23 + EDGE 2021-22", "level": "High", "county_fips": "27053" }, "geometry": { "type": "Point", "coordinates": [ -93.218591, 44.97298 ] } },
{ "type": "Feature", "properties": { "NAME": "Venture Academy Middle School", "sector": "charter", "source": "NCES CCD 2022-23 + EDGE 2021-22", "level": "Middle", "county_fips": "27053" }, "geometry": { "type": "Point", "coordinates": [ -93.218591, 44.97298 ] } },
{ "type": "Feature", "properties": { "NAME": "Universal Academy Charter School", "sector": "charter", "source": "NCES CCD 2022-23 + EDGE 2021-22", "level": "Elementary", "county_fips": "27053" }, "geometry": { "type": "Point", "coordinates": [ -93.232141, 44.949617 ] } },
{ "type": "Feature", "properties": { "NAME": "Bdote Learning Center", "sector": "charter", "source": "NCES CCD 2022-23 + EDGE 2021-22", "level": "Elementary", "county_fips": "27053" }, "geometry": { "type": "Point", "coordinates": [ -93.224829, 44.950418 ] } },
{ "type": "Feature", "properties": { "NAME": "Skyline Math and Science Academy", "sector": "charter", "source": "NCES CCD 2022-23 + EDGE 2021-22", "level": "Elementary", "county_fips": "27053" }, "geometry": { "type": "Point", "coordinates": [ -93.2352, 44.955 ] } },
{ "type": "Feature", "properties": { "NAME": "Lirio Montessori", "sector": "charter", "source": "NCES CCD 2022-23 + EDGE 2021-22", "level": "Elementary", "county_fips": "27053" }, "geometry": { "type": "Point", "coordinates": [ -93.255935, 44.947908 ] } },
{ "type": "Feature", "properties": { "NAME": "Aim Academy of Science & Technology", "sector": "charter", "source": "NCES CCD 2022-23 + EDGE 2021-22", "level": "Middle", "county_fips": "27053" }, "geometry": { "type": "Point", "coordinates": [ -93.256972, 44.950855 ] } },
{ "type": "Feature", "properties": { "NAME": "BANCROFT ELEMENTARY", "sector": "public", "source": "NCES CCD 2022-23 + EDGE 2021-22", "level": "Elementary", "county_fips": "27053" }, "geometry": { "type": "Point", "coordinates": [ -93.255809, 44.933831 ] } },
{ "type": "Feature", "properties": { "NAME": "HALE ELEMENTARY", "sector": "public", "source": "NCES CCD 2022-23 + EDGE 2021-22", "level": "Elementary", "county_fips": "27053" }, "geometry": { "type": "Point", "coordinates": [ -93.256832, 44.905719 ] } },
{ "type": "Feature", "properties": { "NAME": "HIAWATHA ELEMENTARY", "sector": "public", "source": "NCES CCD 2022-23 + EDGE 2021-22", "level": "Elementary", "county_fips": "27053" }, "geometry": { "type": "Point", "coordinates": [ -93.21212, 44.926461 ] } },
{ "type": "Feature", "properties": { "NAME": "Roosevelt High", "sector": "public", "source": "NCES CCD 2022-23 + EDGE 2021-22", "level": "High", "county_fips": "27053" }, "geometry": { "type": "Point", "coordinates": [ -93.231481, 44.930256 ] } },
{ "type": "Feature", "properties": { "NAME": "SANFORD MIDDLE", "sector": "public", "source": "NCES CCD 2022-23 + EDGE 2021-22", "level": "Middle", "county_fips": "27053" }, "geometry": { "type": "Point", "coordinates": [ -93.213351, 44.938768 ] } },
{ "type": "Feature", "properties": { "NAME": "South High", "sector": "public", "source": "NCES CCD 2022-23 + EDGE 2021-22", "level": "High", "county_fips": "27053" }, "geometry": { "type": "Point", "coordinates": [ -93.244269, 44.945963 ] } },
{ "type": "Feature", "properties": { "NAME": "Lake Nokomis Wenonah Elementary", "sector": "public", "source": "NCES CCD 2022-23 + EDGE 2021-22", "level": "Elementary", "county_fips": "27053" }, "geometry": { "type": "Point", "coordinates": [ -93.238304, 44.900998 ] } },
{ "type": "Feature", "properties": { "NAME": "DOWLING ELEMENTARY", "sector": "public", "source": "NCES CCD 2022-23 + EDGE 2021-22", "level": "Elementary", "county_fips": "27053" }, "geometry": { "type": "Point", "coordinates": [ -93.203893, 44.932312 ] } },
{ "type": "Feature", "properties": { "NAME": "Early Childhood Special Education", "sector": "public", "source": "NCES CCD 2022-23 + EDGE 2021-22", "level": "Elementary", "county_fips": "27053" }, "geometry": { "type": "Point", "coordinates": [ -93.261952, 44.942647 ] } },
{ "type": "Feature", "properties": { "NAME": "LORING-NICOLLET HIGH", "sector": "public", "source": "NCES CCD 2022-23 + EDGE 2021-22", "level": "High", "county_fips": "27053" }, "geometry": { "type": "Point", "coordinates": [ -93.26216, 44.962964 ] } },
{ "type": "Feature", "properties": { "NAME": "CENTER SCHOOL", "sector": "public", "source": "NCES CCD 2022-23 + EDGE 2021-22", "level": "High", "county_fips": "27053" }, "geometry": { "type": "Point", "coordinates": [ -93.252068, 44.958306 ] } },
{ "type": "Feature", "properties": { "NAME": "TRANSITION PLUS SERVICES", "sector": "public", "source": "NCES CCD 2022-23 + EDGE 2021-22", "level": "High", "county_fips": "27053" }, "geometry": { "type": "Point", "coordinates": [ -93.243024, 44.947926 ] } },
{ "type": "Feature", "properties": { "NAME": "MPS Metro DT", "sector": "public", "source": "NCES CCD 2022-23 + EDGE 2021-22", "level": "Other", "county_fips": "27053" }, "geometry": { "type": "Point", "coordinates": [ -93.260772, 44.942078 ] } },
{ "type": "Feature", "properties": { "NAME": "NORTHROP ELEMENTARY", "sector": "public", "source": "NCES CCD 2022-23 + EDGE 2021-22", "level": "Elementary", "county_fips": "27053" }, "geometry": { "type": "Point", "coordinates": [ -93.22653, 44.924584 ] } },
{ "type": "Feature", "properties": { "NAME": "SULLIVAN ELEMENTARY", "sector": "public", "source": "NCES CCD 2022-23 + EDGE 2021-22", "level": "Elementary", "county_fips": "27053" }, "geometry": { "type": "Point", "coordinates": [ -93.225694, 44.952574 ] } },
{ "type": "Feature", "properties": { "NAME": "RONALD MCDONALD HOUSE", "sector": "public", "source": "NCES CCD 2022-23 + EDGE 2021-22", "level": "Other", "county_fips": "27053" }, "geometry": { "type": "Point", "coordinates": [ -93.225907, 44.969978 ] } },
{ "type": "Feature", "properties": { "NAME": "Takoda Prep", "sector": "public", "source": "NCES CCD 2022-23 + EDGE 2021-22", "level": "High", "county_fips": "27053" }, "geometry": { "type": "Point", "coordinates": [ -93.246049, 44.961955 ] } },
{ "type": "Feature", "properties": { "NAME": "Longfellow Alternative High", "sector": "public", "source": "NCES CCD 2022-23 + EDGE 2021-22", "level": "High", "county_fips": "27053" }, "geometry": { "type": "Point", "coordinates": [ -93.227762, 44.946436 ] } },
{ "type": "Feature", "properties": { "NAME": "PRATT ELEMENTARY", "sector": "public", "source": "NCES CCD 2022-23 + EDGE 2021-22", "level": "Elementary", "county_fips": "27053" }, "geometry": { "type": "Point", "coordinates": [ -93.214074, 44.968977 ] } },
{ "type": "Feature", "properties": { "NAME": "Anishinabe Academy Elementary", "sector": "public", "source": "NCES CCD 2022-23 + EDGE 2021-22", "level": "Elementary", "county_fips": "27053" }, "geometry": { "type": "Point", "coordinates": [ -93.225694, 44.952574 ] } },
{ "type": "Feature", "properties": { "NAME": "VOA High", "sector": "public", "source": "NCES CCD 2022-23 + EDGE 2021-22", "level": "High", "county_fips": "27053" }, "geometry": { "type": "Point", "coordinates": [ -93.24599, 44.963113 ] } },
{ "type": "Feature", "properties": { "NAME": "Howe Elementary", "sector": "public", "source": "NCES CCD 2022-23 + EDGE 2021-22", "level": "Elementary", "county_fips": "27053" }, "geometry": { "type": "Point", "coordinates": [ -93.211082, 44.934832 ] } },
{ "type": "Feature", "properties": { "NAME": "Heritage Academy High", "sector": "public", "source": "NCES CCD 2022-23 + EDGE 2021-22", "level": "High", "county_fips": "27053" }, "geometry": { "type": "Point", "coordinates": [ -93.261291, 44.941957 ] } },
{ "type": "Feature", "properties": { "NAME": "Roosevelt High - SWS", "sector": "public", "source": "NCES CCD 2022-23 + EDGE 2021-22", "level": "High", "county_fips": "27053" }, "geometry": { "type": "Point", "coordinates": [ -93.231481, 44.930256 ] } },
{ "type": "Feature", "properties": { "NAME": "Takoda Prep Extended", "sector": "public", "source": "NCES CCD 2022-23 + EDGE 2021-22", "level": "High", "county_fips": "27053" }, "geometry": { "type": "Point", "coordinates": [ -93.246049, 44.961955 ] } },
{ "type": "Feature", "properties": { "NAME": "Loring-Nicollet High Extended", "sector": "public", "source": "NCES CCD 2022-23 + EDGE 2021-22", "level": "High", "county_fips": "27053" }, "geometry": { "type": "Point", "coordinates": [ -93.26216, 44.962964 ] } },
{ "type": "Feature", "properties": { "NAME": "Center School Extended", "sector": "public", "source": "NCES CCD 2022-23 + EDGE 2021-22", "level": "High", "county_fips": "27053" }, "geometry": { "type": "Point", "coordinates": [ -93.252068, 44.958306 ] } },
{ "type": "Feature", "properties": { "NAME": "VOA High Extended", "sector": "public", "source": "NCES CCD 2022-23 + EDGE 2021-22", "level": "High", "county_fips": "27053" }, "geometry": { "type": "Point", "coordinates": [ -93.24599, 44.963113 ] } },
{ "type": "Feature", "properties": { "NAME": "Lake Nokomis Keewaydin Elementary", "sector": "public", "source": "NCES CCD 2022-23 + EDGE 2021-22", "level": "Elementary", "county_fips": "27053" }, "geometry": { "type": "Point", "coordinates": [ -93.229299, 44.908545 ] } },
{ "type": "Feature", "properties": { "NAME": "Seward Elementary", "sector": "public", "source": "NCES CCD 2022-23 + EDGE 2021-22", "level": "Elementary", "county_fips": "27053" }, "geometry": { "type": "Point", "coordinates": [ -93.230785, 44.960225 ] } },
{ "type": "Feature", "properties": { "NAME": "Folwell Elementary", "sector": "public", "source": "NCES CCD 2022-23 + EDGE 2021-22", "level": "Elementary", "county_fips": "27053" }, "geometry": { "type": "Point", "coordinates": [ -93.242932, 44.937162 ] } },
{ "type": "Feature", "properties": { "NAME": "Andersen Middle", "sector": "public", "source": "NCES CCD 2022-23 + EDGE 2021-22", "level": "Middle", "county_fips": "27053" }, "geometry": { "type": "Point", "coordinates": [ -93.258819, 44.953311 ] } },
{ "type": "Feature", "properties": { "NAME": "HOPE ACADEMY", "sector": "private", "source": "NCES PSS 2021-22 + EDGE 2021-22", "level": "PSS", "county_fips": "27053" }, "geometry": { "type": "Point", "coordinates": [ -93.263181, 44.95999 ] } },
{ "type": "Feature", "properties": { "NAME": "RISEN CHRIST CATHOLIC SCHOOL", "sector": "private", "source": "NCES PSS 2021-22 + EDGE 2021-22", "level": "PSS", "county_fips": "27053" }, "geometry": { "type": "Point", "coordinates": [ -93.257865, 44.936428 ] } },
{ "type": "Feature", "properties": { "NAME": "SIEMBRA MONTESSORI / CENTRO TYRONE GUZMAN", "sector": "private", "source": "NCES PSS 2021-22 + EDGE 2021-22", "level": "PSS", "county_fips": "27053" }, "geometry": { "type": "Point", "coordinates": [ -93.262111, 44.96347 ] } },
{ "type": "Feature", "properties": { "NAME": "MINNEHAHA ACADEMY - UPPER SCHOOL", "sector": "private", "source": "NCES PSS 2021-22 + EDGE 2021-22", "level": "PSS", "county_fips": "27053" }, "geometry": { "type": "Point", "coordinates": [ -93.205671, 44.94587 ] } },
{ "type": "Feature", "properties": { "NAME": "OPEN ARMS EARLY EDUCATION AND CHILD CARE CENTER", "sector": "private", "source": "NCES PSS 2021-22 + EDGE 2021-22", "level": "PSS", "county_fips": "27053" }, "geometry": { "type": "Point", "coordinates": [ -93.233019, 44.941561 ] } },
{ "type": "Feature", "properties": { "NAME": "MINNEHAHA ACADEMY LOWER SCHOOL", "sector": "private", "source": "NCES PSS 2021-22 + EDGE 2021-22", "level": "PSS", "county_fips": "27053" }, "geometry": { "type": "Point", "coordinates": [ -93.205607, 44.926236 ] } },
{ "type": "Feature", "properties": { "NAME": "OUR LADY OF PEACE", "sector": "private", "source": "NCES PSS 2021-22 + EDGE 2021-22", "level": "PSS", "county_fips": "27053" }, "geometry": { "type": "Point", "coordinates": [ -93.258241, 44.90434 ] } }
]
}
